[{"OBJECT_NAME":"STARLINK-4451","OBJECT_ID":"2022-099AD","EPOCH":"2026-03-21T22:18:27.089280","MEAN_MOTION":15.05275888,"ECCENTRICITY":0.00019614,"INCLINATION":97.6026,"RA_OF_ASC_NODE":202.2593,"ARG_OF_PERICENTER":84.7915,"MEAN_ANOMALY":275.3535,"EPHEMERIS_TYPE":0,"CLASSIFICATION_TYPE":"U","NORAD_CAT_ID":53492,"ELEMENT_SET_NO":999,"REV_AT_EPOCH":19782,"BSTAR":0.0037240429,"MEAN_MOTION_DOT":0.00053541,"MEAN_MOTION_DDOT":0},{"OBJECT_NAME":"STARLINK-4361","OBJECT_ID":"2022-099AE","EPOCH":"2026-03-21T22:09:23.070816","MEAN_MOTION":16.05816874,"ECCENTRICITY":0.00025408,"INCLINATION":97.6496,"RA_OF_ASC_NODE":222.5114,"ARG_OF_PERICENTER":106.1057,"MEAN_ANOMALY":254.0503,"EPHEMERIS_TYPE":0,"CLASSIFICATION_TYPE":"U","NORAD_CAT_ID":53493,"ELEMENT_SET_NO":999,"REV_AT_EPOCH":19902,"BSTAR":0.00045782189,"MEAN_MOTION_DOT":0.0032599,"MEAN_MOTION_DDOT":5.0844813e-5},{"OBJECT_NAME":"STARLINK-4340","OBJECT_ID":"2022-099AF","EPOCH":"2026-03-21T22:12:40.869792","MEAN_MOTION":15.05650866,"ECCENTRICITY":2.012e-5,"INCLINATION":97.6032,"RA_OF_ASC_NODE":203.3266,"ARG_OF_PERICENTER":114.7852,"MEAN_ANOMALY":245.3395,"EPHEMERIS_TYPE":0,"CLASSIFICATION_TYPE":"U","NORAD_CAT_ID":53494,"ELEMENT_SET_NO":999,"REV_AT_EPOCH":19789,"BSTAR":8.7975188e-5,"MEAN_MOTION_DOT":1.209e-5,"MEAN_MOTION_DDOT":0},{"OBJECT_NAME":"STARLINK-4429","OBJECT_ID":"2022-099AG","EPOCH":"2026-03-21T19:29:26.786112","MEAN_MOTION":15.01260532,"ECCENTRICITY":9.325e-5,"INCLINATION":97.6033,"RA_OF_ASC_NODE":202.0914,"ARG_OF_PERICENTER":109.6321,"MEAN_ANOMALY":250.5004,"EPHEMERIS_TYPE":0,"CLASSIFICATION_TYPE":"U","NORAD_CAT_ID":53495,"ELEMENT_SET_NO":999,"REV_AT_EPOCH":19780,"BSTAR":3.0569143e-5,"MEAN_MOTION_DOT":3.34e-6,"MEAN_MOTION_DDOT":0},{"OBJECT_NAME":"STARLINK-4465","OBJECT_ID":"2022-099AH","EPOCH":"2026-03-22T00:00:02.000160","MEAN_MOTION":15.94282961,"ECCENTRICITY":0.0002763,"INCLINATION":97.6404,"RA_OF_ASC_NODE":229.2832,"ARG_OF_PERICENTER":333.8988,"MEAN_ANOMALY":164.1001,"EPHEMERIS_TYPE":0,"CLASSIFICATION_TYPE":"U","NORAD_CAT_ID":53496,"ELEMENT_SET_NO":999,"REV_AT_EPOCH":595,"BSTAR":0.00048377145,"MEAN_MOTION_DOT":0.00178732,"MEAN_MOTION_DDOT":1.4450464e-5},{"OBJECT_NAME":"STARLINK-4453","OBJECT_ID":"2022-099AJ","EPOCH":"2026-03-21T21:00:05.981472","MEAN_MOTION":15.01260664,"ECCENTRICITY":0.00021246,"INCLINATION":97.6009,"RA_OF_ASC_NODE":202.1527,"ARG_OF_PERICENTER":86.0592,"MEAN_ANOMALY":274.0875,"EPHEMERIS_TYPE":0,"CLASSIFICATION_TYPE":"U","NORAD_CAT_ID":53497,"ELEMENT_SET_NO":999,"REV_AT_EPOCH":19781,"BSTAR":1.7712958e-5,"MEAN_MOTION_DOT":1.69e-6,"MEAN_MOTION_DDOT":0},{"OBJECT_NAME":"STARLINK-4439","OBJECT_ID":"2022-099AK","EPOCH":"2026-03-21T21:28:48.266976","MEAN_MOTION":15.05660189,"ECCENTRICITY":4.712e-5,"INCLINATION":97.6033,"RA_OF_ASC_NODE":203.2013,"ARG_OF_PERICENTER":97.0502,"MEAN_ANOMALY":263.0779,"EPHEMERIS_TYPE":0,"CLASSIFICATION_TYPE":"U","NORAD_CAT_ID":53498,"ELEMENT_SET_NO":999,"REV_AT_EPOCH":19788,"BSTAR":9.2039956e-5,"MEAN_MOTION_DOT":1.268e-5,"MEAN_MOTION_DDOT":0},{"OBJECT_NAME":"STARLINK-4454","OBJECT_ID":"2022-099AL","EPOCH":"2026-03-21T21:48:46.736928","MEAN_MOTION":15.05637889,"ECCENTRICITY":2.794e-5,"INCLINATION":97.6024,"RA_OF_ASC_NODE":203.3193,"ARG_OF_PERICENTER":180.6493,"MEAN_ANOMALY":179.4733,"EPHEMERIS_TYPE":0,"CLASSIFICATION_TYPE":"U","NORAD_CAT_ID":53499,"ELEMENT_SET_NO":999,"REV_AT_EPOCH":19789,"BSTAR":-8.2695179e-5,"MEAN_MOTION_DOT":-1.253e-5,"MEAN_MOTION_DDOT":0},{"OBJECT_NAME":"STARLINK-4455","OBJECT_ID":"2022-099AM","EPOCH":"2026-03-21T21:32:49.697088","MEAN_MOTION":15.05667801,"ECCENTRICITY":0.00014233,"INCLINATION":97.6014,"RA_OF_ASC_NODE":203.3415,"ARG_OF_PERICENTER":54.4664,"MEAN_ANOMALY":305.6695,"EPHEMERIS_TYPE":0,"CLASSIFICATION_TYPE":"U","NORAD_CAT_ID":53500,"ELEMENT_SET_NO":999,"REV_AT_EPOCH":19789,"BSTAR":0.00017647343,"MEAN_MOTION_DOT":2.488e-5,"MEAN_MOTION_DDOT":0},{"OBJECT_NAME":"STARLINK-4434","OBJECT_ID":"2022-099AN","EPOCH":"2026-03-22T00:00:02.000160","MEAN_MOTION":15.09345074,"ECCENTRICITY":0.00020644,"INCLINATION":97.6021,"RA_OF_ASC_NODE":202.3289,"ARG_OF_PERICENTER":64.7662,"MEAN_ANOMALY":72.0602,"EPHEMERIS_TYPE":0,"CLASSIFICATION_TYPE":"U","NORAD_CAT_ID":53501,"ELEMENT_SET_NO":999,"REV_AT_EPOCH":567,"BSTAR":-0.0017031914,"MEAN_MOTION_DOT":-0.00027122,"MEAN_MOTION_DDOT":0},{"OBJECT_NAME":"STARLINK-4435","OBJECT_ID":"2022-099AP","EPOCH":"2026-03-22T00:00:02.000160","MEAN_MOTION":15.13132696,"ECCENTRICITY":0.00018413,"INCLINATION":97.6045,"RA_OF_ASC_NODE":203.395,"ARG_OF_PERICENTER":71.7789,"MEAN_ANOMALY":40.7826,"EPHEMERIS_TYPE":0,"CLASSIFICATION_TYPE":"U","NORAD_CAT_ID":53502,"ELEMENT_SET_NO":999,"REV_AT_EPOCH":578,"BSTAR":-0.0012205449,"MEAN_MOTION_DOT":-0.00021611,"MEAN_MOTION_DDOT":0},{"OBJECT_NAME":"STARLINK-4461","OBJECT_ID":"2022-099AQ","EPOCH":"2026-03-21T21:17:49.671744","MEAN_MOTION":16.04797821,"ECCENTRICITY":2.371e-5,"INCLINATION":97.638,"RA_OF_ASC_NODE":229.9001,"ARG_OF_PERICENTER":118.6837,"MEAN_ANOMALY":241.4467,"EPHEMERIS_TYPE":0,"CLASSIFICATION_TYPE":"U","NORAD_CAT_ID":53503,"ELEMENT_SET_NO":999,"REV_AT_EPOCH":19950,"BSTAR":0.0010516392,"MEAN_MOTION_DOT":0.00702191,"MEAN_MOTION_DDOT":0.00024514385},{"OBJECT_NAME":"STARLINK-4448","OBJECT_ID":"2022-099AR","EPOCH":"2026-03-22T00:00:02.000160","MEAN_MOTION":15.08486022,"ECCENTRICITY":0.00015492,"INCLINATION":97.6047,"RA_OF_ASC_NODE":202.322,"ARG_OF_PERICENTER":84.4765,"MEAN_ANOMALY":21.0216,"EPHEMERIS_TYPE":0,"CLASSIFICATION_TYPE":"U","NORAD_CAT_ID":53504,"ELEMENT_SET_NO":999,"REV_AT_EPOCH":572,"BSTAR":-0.0015072511,"MEAN_MOTION_DOT":-0.00023465,"MEAN_MOTION_DDOT":0},{"OBJECT_NAME":"STARLINK-4446","OBJECT_ID":"2022-099AS","EPOCH":"2026-03-22T00:00:02.000160","MEAN_MOTION":15.49185912,"ECCENTRICITY":0.00012172,"INCLINATION":97.6041,"RA_OF_ASC_NODE":204.5728,"ARG_OF_PERICENTER":77.5981,"MEAN_ANOMALY":278.8389,"EPHEMERIS_TYPE":0,"CLASSIFICATION_TYPE":"U","NORAD_CAT_ID":53505,"ELEMENT_SET_NO":999,"REV_AT_EPOCH":565,"BSTAR":0.0089894373,"MEAN_MOTION_DOT":0.00522742,"MEAN_MOTION_DDOT":0},{"OBJECT_NAME":"STARLINK-4437","OBJECT_ID":"2022-099AT","EPOCH":"2026-03-22T00:00:02.000160","MEAN_MOTION":15.09780606,"ECCENTRICITY":0.00020214,"INCLINATION":97.6045,"RA_OF_ASC_NODE":203.334,"ARG_OF_PERICENTER":82.2194,"MEAN_ANOMALY":277.2689,"EPHEMERIS_TYPE":0,"CLASSIFICATION_TYPE":"U","NORAD_CAT_ID":53506,"ELEMENT_SET_NO":999,"REV_AT_EPOCH":578,"BSTAR":-0.00051246189,"MEAN_MOTION_DOT":-8.324e-5,"MEAN_MOTION_DDOT":0},{"OBJECT_NAME":"STARLINK-4443","OBJECT_ID":"2022-099AV","EPOCH":"2026-03-21T18:45:20.224512","MEAN_MOTION":15.05648352,"ECCENTRICITY":5.803e-5,"INCLINATION":97.6024,"RA_OF_ASC_NODE":203.1636,"ARG_OF_PERICENTER":198.0736,"MEAN_ANOMALY":162.047,"EPHEMERIS_TYPE":0,"CLASSIFICATION_TYPE":"U","NORAD_CAT_ID":53508,"ELEMENT_SET_NO":999,"REV_AT_EPOCH":19787,"BSTAR":-2.1296662e-5,"MEAN_MOTION_DOT":-3.68e-6,"MEAN_MOTION_DDOT":0}]
