STARLINK-4451           
1 53492U 22099AD  26080.92948020  .00053541  00000+0  37240-2 0  9990
2 53492  97.6026 202.2593 0001961  84.7915 275.3535 15.05275888197825
STARLINK-4361           
1 53493U 22099AE  26080.92318369  .00325990  50845-4  45782-3 0  9996
2 53493  97.6496 222.5114 0002540 106.1057 254.0503 16.05816874199021
STARLINK-4340           
1 53494U 22099AF  26080.92547303  .00001209  00000+0  87975-4 0  9997
2 53494  97.6032 203.3266 0000201 114.7852 245.3395 15.05650866197894
STARLINK-4429           
1 53495U 22099AG  26080.81211558  .00000334  00000+0  30569-4 0  9991
2 53495  97.6033 202.0914 0000932 109.6321 250.5004 15.01260532197806
STARLINK-4465           
1 53496U 22099AH  26081.00002315  .00178732  14450-4  48377-3 0  9995
2 53496  97.6404 229.2832 0002763 333.8988 164.1001 15.94282961  5956
STARLINK-4453           
1 53497U 22099AJ  26080.87506923  .00000169  00000+0  17713-4 0  9994
2 53497  97.6009 202.1527 0002124  86.0592 274.0875 15.01260664197819
STARLINK-4439           
1 53498U 22099AK  26080.89500309  .00001268  00000+0  92040-4 0  9996
2 53498  97.6033 203.2013 0000471  97.0502 263.0779 15.05660189197883
STARLINK-4454           
1 53499U 22099AL  26080.90887427 -.00001253  00000+0 -82695-4 0  9999
2 53499  97.6024 203.3193 0000279 180.6493 179.4733 15.05637889197890
STARLINK-4455           
1 53500U 22099AM  26080.89779742  .00002488  00000+0  17647-3 0  9993
2 53500  97.6014 203.3415 0001423  54.4664 305.6695 15.05667801197896
STARLINK-4434           
1 53501U 22099AN  26081.00002315 -.00027122  00000+0 -17032-2 0  9994
2 53501  97.6021 202.3289 0002064  64.7662  72.0602 15.09345074  5673
STARLINK-4435           
1 53502U 22099AP  26081.00002315 -.00021611  00000+0 -12205-2 0  9999
2 53502  97.6045 203.3950 0001841  71.7789  40.7826 15.13132696  5787
STARLINK-4461           
1 53503U 22099AQ  26080.88738046  .00702191  24514-3  10516-2 0  9992
2 53503  97.6380 229.9001 0000237 118.6837 241.4467 16.04797821199507
STARLINK-4448           
1 53504U 22099AR  26081.00002315 -.00023465  00000+0 -15073-2 0  9996
2 53504  97.6047 202.3220 0001549  84.4765  21.0216 15.08486022  5728
STARLINK-4446           
1 53505U 22099AS  26081.00002315  .00522742  00000+0  89894-2 0  9999
2 53505  97.6041 204.5728 0001217  77.5981 278.8389 15.49185912  5659
STARLINK-4437           
1 53506U 22099AT  26081.00002315 -.00008324  00000+0 -51246-3 0  9998
2 53506  97.6045 203.3340 0002021  82.2194 277.2689 15.09780606  5781
STARLINK-4443           
1 53508U 22099AV  26080.78148408 -.00000368  00000+0 -21297-4 0  9992
2 53508  97.6024 203.1636 0000580 198.0736 162.0470 15.05648352197870
